[{"OBJECT_NAME":"YAOGAN-14","OBJECT_ID":"2012-021A","EPOCH":"2026-03-09T23:13:16.463424","MEAN_MOTION":15.26486019,"ECCENTRICITY":0.00056417,"INCLINATION":97.2863,"RA_OF_ASC_NODE":208.4378,"ARG_OF_PERICENTER":161.6562,"MEAN_ANOMALY":198.4882,"EPHEMERIS_TYPE":0,"CLASSIFICATION_TYPE":"U","NORAD_CAT_ID":38257,"ELEMENT_SET_NO":999,"REV_AT_EPOCH":77067,"BSTAR":0.00037795498,"MEAN_MOTION_DOT":9.798e-5,"MEAN_MOTION_DDOT":0},{"OBJECT_NAME":"STARLINK-35993","OBJECT_ID":"2025-270V","EPOCH":"2026-03-09T00:42:29.978496","MEAN_MOTION":15.27598649,"ECCENTRICITY":0.00013521,"INCLINATION":43.0031,"RA_OF_ASC_NODE":60.0125,"ARG_OF_PERICENTER":241.7516,"MEAN_ANOMALY":118.3199,"EPHEMERIS_TYPE":0,"CLASSIFICATION_TYPE":"U","NORAD_CAT_ID":66607,"ELEMENT_SET_NO":999,"REV_AT_EPOCH":1750,"BSTAR":0.0010469499,"MEAN_MOTION_DOT":0.00028676,"MEAN_MOTION_DDOT":0}]
